{"fetched_at":"2026-03-29T02:12:04Z","count":15717,"tles":[{"name":"STARLINK-35815","line1":"1 66577U 25268W   26087.41685152  .00021716  00000+0  79592-3 0  9990","line2":"2 66577  43.0021 241.3139 0001465 270.7305  89.3379 15.27596734 20826","category":"Starlink"}]}